STARLINK-4329           
1 53087U 22077AW  23253.04388841  .00000384  00000+0  34501-4 0  9993
2 53087  97.6563  72.9009 0003014  55.3069 304.8439 15.01259390 64729
STARLINK-4333           
1 53088U 22077AX  23252.50881671  .00000613  00000+0  52343-4 0  9992
2 53088  97.6560  72.3817 0003494  63.3349 296.8233 15.01261124 64067
TIANLIAN 2-03           
1 53100U 22078A   23251.78373986  .00000059  00000+0  00000+0 0  9994
2 53100   1.9585 280.6499 0001455 238.1395 121.5119  1.00269532  4409
LARES-2                 
1 53105U 22080A   23252.28291621  .00000006  00000+0  00000+0 0  9995
2 53105  70.1510 292.3881 0005377 199.0109 161.0499  6.38965203 27016
GREENCUBE               
1 53106U 22080B   23248.51952417 -.00000003  00000+0  00000+0 0  9992
2 53106  70.1477 291.8088 0008558 171.6392 188.4412  6.42557127 26919
MTCUBE 2 (ROBUSTA 1F)   
1 53109U 22080E   23252.08182408 -.00000003  00000+0  00000+0 0  9997
2 53109  70.1308 290.2534 0008356 152.7867 207.3231  6.42584217 27031
SUPERVIEW NEO-2 01      
1 53128U 22082A   23253.02639876  .00009517  00000+0  38968-3 0  9997
2 53128  97.3940 260.3331 0001745  90.0192 270.1246 15.24512390 64159
SUPERVIEW NEO-2 02      
1 53130U 22082C   23253.04972707  .00008440  00000+0  34598-3 0  9994
2 53130  97.3938 260.4148 0001745  89.3461 270.7976 15.24512573 64166
STARLINK-4063           
1 53132U 22083A   23252.47528083  .00001781  00000+0  12998-3 0  9998
2 53132  53.2161 309.2130 0001411  86.0122 274.1032 15.08839990 63503
STARLINK-4154           
1 53133U 22083B   23252.58334491  .00030296  00000+0  20015-2 0  9990
2 53133  53.2162 308.7572 0001381  80.9028  31.5643 15.07183523 64140
STARLINK-4150           
1 53134U 22083C   23252.54887899  .00004031  00000+0  27115-3 0  9999
2 53134  53.2166 308.8794 0001494  90.9909 269.1254 15.08847803 63512
STARLINK-4023           
1 53135U 22083D   23252.88743266  .00002439  00000+0  17126-3 0  9997
2 53135  53.2166 307.3643 0001426  88.1206 271.9950 15.08849595 64193
STARLINK-4152           
1 53136U 22083E   23252.48631932  .00002193  00000+0  15583-3 0  9992
2 53136  53.2160 309.1624 0001415  91.9609 268.1545 15.08844392 64136
STARLINK-4145           
1 53137U 22083F   23252.47895959  .00002142  00000+0  15261-3 0  9990
2 53137  53.2167 309.1962 0001574  76.1180 283.9987 15.08845826 63502
STARLINK-4141           
1 53138U 22083G   23252.41136757  .00001260  00000+0  97239-4 0  9995
2 53138  53.2164 304.6792 0001399  87.4036 272.7116 15.08835703 64336
STARLINK-4185           
1 53139U 22083H   23252.99784151  .00006230  00000+0  40915-3 0  9996
2 53139  53.2159 306.8668 0001409  88.6240 271.4914 15.08841313 64212
STARLINK-4170           
1 53140U 22083J   23252.53784369  .00002474  00000+0  17351-3 0  9993
2 53140  53.2172 308.9308 0001403  86.0430 274.0722 15.08834933 63518
STARLINK-4103           
1 53141U 22083K   23252.85064322  .00000278  00000+0  35554-4 0  9995
2 53141  53.2177 307.5236 0001897  81.5408 278.5799 15.08835831 64197
STARLINK-4101           
1 53142U 22083L   23252.46424023  .00000948  00000+0  77649-4 0  9996
2 53142  53.2166 309.2635 0001329  84.5338 275.5806 15.08838106 63512
STARLINK-4102           
1 53143U 22083M   23252.97944057 -.00000156  00000+0  82985-5 0  9999
2 53143  53.2168 306.9479 0001484  83.0458 277.0703 15.08844953 64212
STARLINK-4100           
1 53144U 22083N   23252.52677297  .00017939  00000+0  11410-2 0  9998
2 53144  53.2160 308.9820 0001251  96.4984 263.6151 15.08883738 63515
STARLINK-4106           
1 53145U 22083P   23252.57464292  .00005248  00000+0  34766-3 0  9993
2 53145  53.2173 308.7653 0001656  95.2664 264.8517 15.08834145 64151
STARLINK-4099           
1 53146U 22083Q   23252.85432681  .00000162  00000+0  28270-4 0  9996
2 53146  53.2181 307.5049 0001952  86.5274 273.5942 15.08832059 64191
STARLINK-4094           
1 53147U 22083R   23252.43847925  .00001741  00000+0  12747-3 0  9997
2 53147  53.2167 309.3768 0001479  91.2469 268.8693 15.08843006 64135
STARLINK-4066           
1 53148U 22083S   23252.44679818  .00002667  00000+0  18557-3 0  9996
2 53148  53.2170 309.3476 0001450  87.9015 272.2143 15.08841877 63507
STARLINK-4021           
1 53149U 22083T   23252.44676038  .00001002  00000+0  81060-4 0  9990
2 53149  53.2172 299.3401 0001484  82.2101 277.9060 15.08838465 63641
STARLINK-4038           
1 53150U 22083U   23252.42099544  .00000783  00000+0  67303-4 0  9990
2 53150  53.2171 299.4566 0001494  89.0058 271.1106 15.08841118 63637
STARLINK-4040           
1 53151U 22083V   23252.40995767  .00000979  00000+0  79578-4 0  9995
2 53151  53.2164 299.5052 0001404  87.3432 272.7721 15.08838490 63638
STARLINK-4045           
1 53152U 22083W   23253.07971984  .00000959  00000+0  78356-4 0  9996
2 53152  53.2159 296.4983 0001397  83.4056 276.7095 15.08841026 64360
STARLINK-4098           
1 53153U 22083X   23252.40627849  .00001907  00000+0  13784-3 0  9998
2 53153  53.2153 299.5224 0001537  88.2301 271.8867 15.08843025 63632
STARLINK-4077           
1 53154U 22083Y   23253.07603285  .00002217  00000+0  15728-3 0  9996
2 53154  53.2170 296.5163 0001353  89.8847 270.2300 15.08848355 64366
STARLINK-4088           
1 53155U 22083Z   23252.59764492  .00000411  00000+0  43898-4 0  9995
2 53155  53.2165 298.6607 0001461  94.3738 265.7421 15.08835641 64296
STARLINK-4087           
1 53156U 22083AA  23252.58658548  .00010412  00000+0  67117-3 0  9990
2 53156  53.2158 298.5844 0001328  81.4338 278.6805 15.08848504 63667
STARLINK-4093           
1 53157U 22083AB  23252.65651790  .00002872  00000+0  19845-3 0  9997
2 53157  53.2168 298.3947 0001406  88.2875 271.8278 15.08846866 64309
STARLINK-4054           
1 53158U 22083AC  23252.53507730  .00000680  00000+0  60820-4 0  9994
2 53158  53.2180 298.9420 0001517  92.3909 267.7256 15.08841847 63654
STARLINK-4111           
1 53159U 22083AD  23252.51667816  .00001970  00000+0  14183-3 0  9998
2 53159  53.2160 299.0268 0001524  83.7319 276.3847 15.08842929 63656
STARLINK-4096           
1 53160U 22083AE  23252.46148037  .00001550  00000+0  11544-3 0  9995
2 53160  53.2163 299.2751 0001370  82.7336 277.3812 15.08840045 63646
STARLINK-4055           
1 53161U 22083AF  23252.57188056  .00001276  00000+0  98276-4 0  9996
2 53161  53.2163 298.7780 0001349  85.4219 274.6927 15.08838705 64298
STARLINK-4114           
1 53162U 22083AG  23252.45507763  .00002318  00000+0  16363-3 0  9998
2 53162  53.2165 299.3110 0001403  86.5620 273.5532 15.08844779 63640
STARLINK-4104           
1 53163U 22083AH  23252.91667824  .00027878  00000+0  18434-2 0  9993
2 53163  53.2157 297.2716 0001243  87.8026 358.2505 15.07192615 64340
STARLINK-4116           
1 53164U 22083AJ  23252.44308126  .00003083  00000+0  21168-3 0  9990
2 53164  53.2166 299.3556 0001447  87.8832 272.2326 15.08840804 63646
STARLINK-4090           
1 53165U 22083AK  23252.42835815  .00001031  00000+0  82882-4 0  9991
2 53165  53.2162 299.4246 0001369  86.9308 273.1841 15.08838323 63646
STARLINK-4110           
1 53166U 22083AL  23252.43571872  .00000889  00000+0  73956-4 0  9995
2 53166  53.2169 299.3896 0001392  85.5906 274.5245 15.08838442 63644
STARLINK-3683           
1 53167U 22083AM  23252.38005742  .00004005  00000+0  26956-3 0  9999
2 53167  53.2166 284.6289 0001469  83.6785 276.4375 15.08846265 63832
STARLINK-4105           
1 53168U 22083AN  23252.43204014  .00001496  00000+0  11203-3 0  9999
2 53168  53.2166 299.4063 0001324  89.3221 270.7922 15.08840124 63647
STARLINK-4117           
1 53169U 22083AP  23252.42425404  .00000434  00000+0  45341-4 0  9999
2 53169  53.2166 284.7005 0001463  89.6153 270.5006 15.08838208 63834
STARLINK-4095           
1 53170U 22083AQ  23252.39385119  .00000269  00000+0  34972-4 0  9999
2 53170  53.2168 294.5278 0001394  93.4566 266.6586 15.08841923 63706
STARLINK-4052           
1 53171U 22083AR  23253.09717126  .00000016  00000+0  19065-4 0  9991
2 53171  53.2163 266.1771 0001452 100.4288 259.6868 15.08845837 64793
STARLINK-4299           
1 53172U 22083AS  23252.85017283 -.00000044  00000+0  15300-4 0  9992
2 53172  53.2172 292.4391 0001482  93.7561 266.3600 15.08836264 64406
STARLINK-4300           
1 53173U 22083AT  23252.34049588  .00000844  00000+0  71084-4 0  9998
2 53173  53.2162 274.8059 0001470  95.4230 264.6930 15.08842128 63963
STARLINK-4205           
1 53174U 22083AU  23252.63351438  .00001131  00000+0  89123-4 0  9994
2 53174  53.2170 308.5038 0001485  89.7609 270.3554 15.08843999 64163
STARLINK-4292           
1 53175U 22083AV  23252.62983836  .00000980  00000+0  79672-4 0  9996
2 53175  53.2167 308.5197 0001235  86.0914 274.0220 15.08844063 64162
STARLINK-4294           
1 53176U 22083AW  23253.09764638  .00000047  00000+0  21051-4 0  9998
2 53176  53.2155 281.3282 0001449 112.2335 247.8810 15.08842746 64584
STARLINK-4298           
1 53177U 22083AX  23252.99554105  .00000429  00000+0  45047-4 0  9998
2 53177  53.2159 271.8638 0001336  96.4520 263.6624 15.08837850 64705
STARLINK-4280           
1 53178U 22083AY  23252.82211873  .00000366  00000+0  41070-4 0  9995
2 53178  53.2165 297.6536 0001332  85.6374 274.4770 15.08839606 64319
STARLINK-4276           
1 53179U 22083AZ  23253.01342888  .00001011  00000+0  81615-4 0  9996
2 53179  53.2162 256.3921 0001398  87.5726 272.5427 15.08841486 64925
STARLINK-4258           
1 53180U 22083BA  23252.43664973  .00000750  00000+0  65183-4 0  9996
2 53180  53.2167 259.1849 0001423  98.2255 261.8898 15.08841752 64195
STARLINK-4273           
1 53181U 22083BB  23252.96561376  .00001622  00000+0  11998-3 0  9991
2 53181  53.2150 256.8031 0001330  91.2441 268.8704 15.08842930 64914
STARLINK-4278           
1 53182U 22083BC  23252.32945731  .00000928  00000+0  76406-4 0  9997
2 53182  53.2166 274.8534 0001474  85.9659 274.1501 15.08842547 63963
